FENGYUN 1C DEB          
1 32234U 99025CWG 17345.58642905  .00000531  00000-0  45207-3 0  9998
2 32234  98.5590  30.4025 0146832  87.0103 274.7846 13.86216504526398
